QIANFAN-49              
1 62250U 24232P   25239.59452197  .00000045  00000+0  50931-4 0  9991
2 62250  88.9943  52.0495 0015467 139.1762 221.0551 13.50958067 53373
QIANFAN-50              
1 62251U 24232Q   25239.54524527  .00000047  00000+0  54307-4 0  9997
2 62251  88.9948  52.0567 0017081 141.1245 219.1139 13.50964657 53396
QIANFAN-51              
1 62252U 24232R   25239.52879992  .00000041  00000+0  45401-4 0  9994
2 62252  88.9942  52.0589 0014481 143.5936 216.6203 13.50967137 53388
QIANFAN-52              
1 62253U 24232S   25239.55759257  .00000041  00000+0  44704-4 0  9994
2 62253  88.9938  51.9336 0016684 137.1532 223.0923 13.50961620 53472
QIANFAN-53              
1 62254U 24232T   25239.61108592  .00000038  00000+0  39348-4 0  9996
2 62254  88.9946  52.0247 0015545 137.6760 222.5594 13.50965641 53440
QIANFAN-54              
1 62255U 24232U   25239.57817008  .00000045  00000+0  50956-4 0  9997
2 62255  88.9937  51.7157 0002811 141.1944 218.9410 13.50967766 84948
QIANFAN-55              
1 62785U 25016A   25239.60397186  .00000109  00000+0  15047-3 0  9992
2 62785  88.9808 114.2733 0015970 303.0568  56.9049 13.50961288 32729
QIANFAN-56              
1 62786U 25016B   25239.62058606  .00000104  00000+0  14282-3 0  9991
2 62786  88.9781 114.1372 0014708 306.1793  53.7997 13.50960406 32773
